#aV2006  7 30  0  0   .00000000      96 DD+AD WGS84 FIT  NGA
## 1386       .00000000   900.00000000 53946  .0000000000000
+   29     1  2  3  4  5  6  7  8  9 10 11 13 14 15 16 17 18
+         19 20 21 22 23 24 25 26 27 28 29 30  0  0  0  0  0
+          0  0  0  0  0  0  0  0  0  0  0  0  0  0  0  0  0
+          0  0  0  0  0  0  0  0  0  0  0  0  0  0  0  0  0
+          0  0  0  0  0  0  0  0  0  0  0  0  0  0  0  0  0
++         0  0  0  0  0  0  0  0  0  0  0  0  0  0  0  0  0
++         0  0  0  0  0  0  0  0  0  0  0  0  0  0  0  0  0
++         0  0  0  0  0  0  0  0  0  0  0  0  0  0  0  0  0
++         0  0  0  0  0  0  0  0  0  0  0  0  0  0  0  0  0
++         0  0  0  0  0  0  0  0  0  0  0  0  0  0  0  0  0
%c cc cc ccc ccc cccc cccc cccc cccc ccccc ccccc ccccc ccccc
%c cc cc ccc ccc cccc cccc cccc cccc ccccc ccccc ccccc ccccc
%f  0.0000000  0.000000000  0.00000000000  0.000000000000000
%f  0.0000000  0.000000000  0.00000000000  0.000000000000000
%i    0    0    0    0      0      0      0      0         0
%i    0    0    0    0      0      0      0      0         0
/*      NGA, ST. LOUIS,MO.                                  
/*   EPHEMERIS COMPUTED FROM  3 DAYS OF DATA                
/* CCCCCCCCCCCCCCCCCCCCCCCCCCCCCCCCCCCCCCCCCCCCCCCCCCCCCCCCC
/* CCCCCCCCCCCCCCCCCCCCCCCCCCCCCCCCCCCCCCCCCCCCCCCCCCCCCCCCC
*  2006  7 30  1 30   .00000000                                                 
P  1  19758.080223  13048.347479 -11898.321743     68.128345                    
V  1   7966.880142  13225.970693  27233.938043       .020352                    
P  2 -15491.682197  -2761.493677 -21627.998697     18.762510                    
V  2   8952.927831 -25415.039660  -3425.110173       .039082                    
P  3  21622.201415   6960.648903  13844.207995    197.687413                    
V  3  10598.354575  14613.932396 -23294.546682      -.180731                    
P  4  -9395.013929 -14913.986543 -19801.713967    284.121781                    
V  4  10548.465306 -22939.990582  12642.000298       .071042                    
P  5 -20602.725718  13126.646849 -10420.368826    262.707665                    
V  5 -13407.771894    158.372164  27419.786710       .276937                    
P  6   1163.787627  20240.625475 -16928.674942    594.960122                    
V  6 -16301.120139 -14933.715566 -18825.041296       .041023                    
P  7  18606.959985  18856.858468   1029.277587    538.936737                    
V  7  -2099.821466   3205.143168 -31206.430334      -.018489                    
P  8  -2324.720337 -21269.901201  15316.450194    -74.062063                    
V  8   9576.305827 -17502.169150 -23042.561140      -.012735                    
P  9 -14858.392799  17710.785520  12265.729011     29.901075                    
V  9   2672.299244 -16576.163919  26252.213341       .015881                    
P 10 -26263.289401    364.853779  -5031.918862     87.340405                    
V 10   5837.376121  -2961.096183 -30987.951758       .005025                    
P 11  13321.058528 -19864.062727  11212.594239    342.110006                    
V 11   1177.944897  15159.830206  25559.256701       .021272                    
P 13  -1559.575147 -20257.758523 -17228.475959     81.283153                    
V 13  14170.624763  16344.008083 -20566.093150       .030883                    
P 14  15340.849664  21600.059673   2389.263633     -8.768921                    
V 14  -3349.469660  -1078.635342  32081.659911       .008474                    
P 15   2594.895194  20928.818400  15740.590165    653.728482                    
V 15 -10680.379032  17577.749204 -21830.455204       .069156                    
P 16  24799.547273   2587.259329  -9238.135525     60.505447                    
V 16 -11286.164874   4239.784934 -28732.768785       .029620                    
P 17 -15036.946563 -21733.536725   3150.431848     99.730299                    
V 17   4653.486323   1341.496367  31332.137756      -.008471                    
P 18  -2565.905463  15539.543751  21457.895649   -244.707428                    
V 18 -26917.091200   2711.236089  -5523.905247      -.012128                    
P 19  16352.195779  -2523.838832  20898.574448      3.976460                    
V 19  14842.869743  21705.466053  -8979.757177       .026235                    
P 20  17912.214271 -13459.425387 -14337.058993    -23.714009                    
V 20  18172.557134  -1007.758765  23826.745428       .003524                    
P 21  -3362.649667  24596.322372   8715.314336     44.532773                    
V 21  -7538.830856   8949.209761 -28950.653074       .021549                    
P 22  12295.760050  12772.625574  19938.037787    120.890441                    
V 22 -24689.801130   4044.102392  12713.213048       .036088                    
P 23   8945.381270 -12575.274288 -21695.515517    138.006449                    
V 23  17778.736386  20741.637327  -4885.637562      -.002234                    
P 24  -2564.815802 -21214.113935 -15366.507116     24.489347                    
V 24  10038.942933 -17497.995729  22415.518801       .028561                    
P 25  13081.620963   8638.677429 -21025.560162    240.289139                    
V 25  -7870.892436  26538.801365   6035.100495       .730617                    
P 26 -17073.769346   -442.294860  20104.002460   -197.302694                    
V 26 -15669.950260 -20987.560961 -12946.448762      -.135211                    
P 27   2533.845490 -25446.465731   7129.850871     60.352645                    
V 27   5174.790489  -7139.976275 -30183.650954       .018295                    
P 28  -8575.935052 -13812.141267  21354.095353     22.076169                    
V 28  26017.653397  -4335.899582   7410.388423      -.008277                    
P 29 -18652.884129  -2633.490247  19073.534551    631.861427                    
V 29 -14522.985491 -18578.571648 -16691.201278       .017785                    
P 30  -8715.532139  16139.696699 -19457.508940      5.195189                    
V 30 -23983.860444   3436.906987  13917.323837       .012145                    
EOF
